#cP2016  7 13  0  0  0.00000000      96 ORBIT IGb08 HLM  IGS
## 1905 259200.00000000   900.00000000 57582 0.0000000000000
+   32   G01G02G03G04G05G06G07G08G09G10G11G12G13G14G15G16G17
+        G18G19G20G21G22G23G24G25G26G27G28G29G30G31G32  0  0
+          0  0  0  0  0  0  0  0  0  0  0  0  0  0  0  0  0
+          0  0  0  0  0  0  0  0  0  0  0  0  0  0  0  0  0
+          0  0  0  0  0  0  0  0  0  0  0  0  0  0  0  0  0
++         2  2  2  0  2  2  2  2  1  2  2  2  2  2  2  2  2
++         2  2  2  2  2  2  2  2  2  2  2  2  2  2  2  0  0
++         0  0  0  0  0  0  0  0  0  0  0  0  0  0  0  0  0
++         0  0  0  0  0  0  0  0  0  0  0  0  0  0  0  0  0
++         0  0  0  0  0  0  0  0  0  0  0  0  0  0  0  0  0
%c G  cc GPS ccc cccc cccc cccc cccc ccccc ccccc ccccc ccccc
%c cc cc ccc ccc cccc cccc cccc cccc ccccc ccccc ccccc ccccc
%f  1.2500000  1.025000000  0.00000000000  0.000000000000000
%f  0.0000000  0.000000000  0.00000000000  0.000000000000000
%i    0    0    0    0      0      0      0      0         0
%i    0    0    0    0      0      0      0      0         0
/* FINAL ORBIT COMBINATION FROM WEIGHTED AVERAGE OF:        
/* cod emr esa gfz grg jpl mit ngs sio                      
/* REFERENCED TO IGS TIME (IGST) AND TO WEIGHTED MEAN POLE: 
/* PCV:IGS08_1904 OL/AL:FES2004  NONE     Y  ORB:CMB CLK:CMB
*  2016  7 13  3 45  0.00000000
PG01 -13775.358724  22324.857534  -3298.267952     26.728522  5  4  4 100       
PG02  19338.744463  -9303.591621 -14947.597280    577.032722  4  9  5 111       
PG03  -8986.315390  13735.206136 -20874.772702    -72.548750  5  6  2  86       
PG04 -24447.702118  -8125.507593  -7197.425321 999999.999999
PG05  24692.402319  -4150.844782   9083.305315   -105.862609  6 10  4  83       
PG06  14565.602843   5367.140076 -21542.269919    217.825254  6  7  6  85       
PG07   -918.973310  20360.458859  16945.971713    442.366368  6  9  7 108       
PG08  -9893.462001  13276.280691  20806.964757    -42.541018  5  7  5 128       
PG09   5824.025778  24970.461975  -6900.508466    166.403968  3  5  3  68       
PG10 -20956.378587 -10882.156844  12251.426376    -64.388685  4  7  3  65       
PG11 -10855.975137  23427.904907   5604.731459   -655.686630  5  7  3 107       
PG12  12249.498781 -11654.529917 -20562.016370    385.145277  6  9  6 118       
PG13  14310.755177  -4271.256694  21841.558253    -30.800415  3  3  4  78       
PG14 -16262.994008 -14157.402665 -15356.801344    -24.284984  7  6  4 127       
PG15   8459.016863 -15511.080877  19606.103332   -319.145827  6  7  4  98       
PG16 -24957.784572   1659.016520   9385.661669     -5.090712  5  7  4 109       
PG17  14548.782293  20086.246937  -9425.804711   -203.925995  2  7  6  83       
PG18  -9826.674844 -15648.247237  19708.264264    535.907025  4  7  5  68       
PG19  16324.816661  11786.277025 -17383.965483   -524.991761  3  6  6 100       
PG20  12188.590180 -13929.189476  18914.028551    423.927858  6  6  3  88       
PG21  -3067.094020 -19441.358681  18485.045843   -528.208369  4  6  3 111       
PG22 -17542.238371  11101.937581 -16390.600041    298.137535  5  5  5  90       
PG23  -1727.283068  21877.117657 -14438.122157   -181.932020  5  8  6  79       
PG24  15447.180591 -21463.921444    541.802156    -20.053627  7  6  2 112       
PG25  -1655.637118 -15060.126466 -21959.768603   -207.399697  7  4  6 119       
PG26 -26345.209361  -3429.983690  -1041.585366   -421.740450  4  5  4 103       
PG27 -15641.343954    825.426940  21435.117678    114.067205  5  6  6 106       
PG28  18568.500299  13131.277431  14378.981906    536.784983  4  4  6 118       
PG29  -2352.703420 -24690.622620  -9555.012205    655.551276  9  6  5 121       
PG30   7114.619199  14686.139699  20930.727347    139.304218  4  6  6 113       
PG31 -16627.053920  -1681.803546 -20628.686924    259.156792  3  4  4 100       
PG32 -16183.207067 -18279.581373 -10467.217115    -46.989880  6  6  6 102       
*  2016  7 13  4  0  0.00000000
PG01 -14106.614834  22344.639902   -430.101830     26.729726  5  4  4 105       
PG02  18520.933768  -7560.190668 -16830.066024    577.029324  4  9  6 100       
PG03 -11307.150838  13464.853976 -19900.195024    -72.551483  5  6  3  88       
PG04 -23496.325118  -8184.817406  -9859.874795 999999.999999
PG05  25567.652700  -3829.096275   6458.455446   -105.859767  6 10  4  68       
PG06  13185.939439   7430.118703 -21815.929880    217.829940  6  7  6 102       
PG07  -2129.664821  21727.116564  14974.150345    442.364344  6  9  7 108       
PG08 -11003.833000  11136.002779  21498.633123    -42.541911  5  7  5 124       
PG09   5183.743356  24236.670582  -9531.821381    166.410409  3  5  3  77       
PG10 -19420.621077 -10968.875884  14496.037420    -64.395252  4  7  2  67       
PG11 -11069.848193  22493.158922   8173.189816   -655.688003  5  7  4 101       
PG12  14470.350578 -11279.905983 -19260.715631    385.145840  6  9  6 109       
PG13  15110.963492  -1890.915286  21631.252437    -30.802526  2  3  4  88       
PG14 -16694.889274 -15780.073828 -13212.407126    -24.286705  6  7  4 114       
PG15   9705.283634 -13528.117377  20503.472297   -319.147337  6  6  4  99       
PG16 -25848.829922   1390.765304   6690.630390     -5.088777  4  6  4 111       
PG17  14750.000382  21044.088781  -6752.301084   -203.926011  3  7  5  70       
PG18  -7615.070919 -15656.027475  20662.170878    535.910556  4  6  5  83       
PG19  16812.340936  13574.313627 -15450.660457   -524.991709  3  6  5 100       
PG20  14311.207569 -13767.469432  17507.761087    423.929691  6  7  3  83       
PG21  -1882.461359 -20944.502544  16841.433223   -528.210154  4  6  3 109       
PG22 -19343.254353  10777.276732 -14510.667806    298.129329  6  6  5  91       
PG23  -2730.165725  20342.434191 -16408.121406   -181.933207  4  7  6  97       
PG24  15574.880399 -21104.313447   3374.177400    -20.054724  6  6  2 113       
PG25    825.340660 -14867.909109 -22121.466949   -207.405969  7  4  6 117       
PG26 -26048.144250  -3661.609948  -3875.265064   -421.749519  4  5  4  98       
PG27 -16641.353435  -1368.198200  20656.417510    114.071184  5  6  6 105       
PG28  16912.440658  12982.010139  16491.976325    536.787453  4  4  5 115       
PG29  -1719.206053 -23617.148829 -12069.088751    655.550338  9  7  6 116       
PG30   5586.329288  16473.948250  20035.170319    139.306364  4  7  6 107       
PG31 -15234.810067  -3656.859220 -21397.578679    259.155350  2  5  4 103       
PG32 -16431.365580 -19328.063855  -7883.079468    -46.999298  6  6  5 108       
*  2016  7 13  4 15  0.00000000
PG01 -14266.456162  22101.994277   2445.570094     26.730897  5  3  4 105       
PG02  17691.310819  -5604.459173 -18408.847808    577.025641  3  9  6 122       
PG03 -13509.161485  13317.572901 -18582.987591    -72.554239  5  6  3  97       
PG04 -22260.778465  -8285.224454 -12356.466991 999999.999999
PG05  26155.788882  -3554.650730   3723.520061   -105.857444  6 10  4  69       
PG06  11911.949534   9571.348797 -21713.868518    217.834636  6  7  5  99       
PG07  -3141.894025  22955.270846  12742.114652    442.361876  6 10  7 110       
PG08 -12253.264336   9007.624816  21821.823726    -42.543398  5  7  5 121       
PG09   4365.609987  23285.089999 -11998.979011    166.416893  2  5  3  68       
PG10 -17651.730775 -11131.843143  16492.318853    -64.401784  3  7  2  61       
PG11 -11277.091433  21286.775353  10597.849810   -655.688878  5  7  5 132       
PG12  16545.478724 -11042.712987 -17629.504258    385.146804  5  9  6 113       
PG13  16019.859729    401.927939  21044.271200    -30.804681  2  3  4 100       
PG14 -17105.133609 -17141.580712 -10839.081823    -24.288556  6  7  3 113       
PG15  11084.358913 -11538.880552  21042.086327   -319.148515  5  5  3 101       
PG16 -26444.393743   1202.694103   3882.689003     -5.086683  3  6  4 108       
PG17  14867.463396  21709.337132  -3962.685634   -203.925505  3  7  5  87       
PG18  -5319.667886 -15771.131889  21278.295419    535.913808  4  5  5  78       
PG19  17301.921291  15122.704567 -13251.596921   -524.991265  3  6  5  90       
PG20  16261.932686 -13693.164398  15797.264163    423.931871  7  8  3  81       
PG21   -865.185780 -22336.646106  14920.134741   -528.210905  4  7  3 104       
PG22 -20928.277488  10533.994877 -12378.555716    298.121053  6  6  5  88       
PG23  -3906.580776  18676.576472 -18086.570360   -181.934544  4  7  6  91       
PG24  15562.697090 -20474.654928   6147.714258    -20.056354  6  5  3 114       
PG25   3312.041949 -14813.055565 -21907.051952   -207.412233  7  4  6 115       
PG26 -25446.902283  -3905.129774  -6642.454943   -421.758563  4  4  4 111       
PG27 -17704.564178  -3408.551904  19522.315309    114.075127  5  6  6  98       
PG28  15035.528908  12906.783091  18333.432766    536.789999  4  5  4 114       
PG29   -908.660892 -22334.049316 -14375.869496    655.549818  8  7  6 113       
PG30   4218.998405  18238.249364  18793.811888    139.308561  4  7  6 112       
PG31 -13912.692975  -5762.735608 -21796.626038    259.153358  1  5  3 106       
PG32 -16586.886399 -20100.290014  -5163.339809    -47.008745  6  6  5 119       
EOF
